{"type": "FeatureCollection", "generated_at": "2026-09-29T15:16:03Z", "date": "2026-09-29", "features": [{"type": "Feature", "geometry": {"type": "Polygon", "coordinates": [[[-121.255925620985, 45.2855837062149], [-121.274911762028, 45.2919690714837], [-121.300681274979, 45.2979396917481], [-121.310429363627, 45.299539657332], [-121.332135637274, 45.300591050706], [-121.340846506664, 45.3015497687707], [-121.344349737932, 45.3026722861629], [-121.355754701947, 45.3022616116466], [-121.36521342637, 45.301987826983], [-121.369456228683, 45.3003724705546], [-121.37359221884, 45.3064970232305], [-121.372366723434, 45.3112815750389], [-121.361793866248, 45.3219114846968], [-121.360818887007, 45.3257152160272], [-121.363148146182, 45.3275113146842], [-121.366040935804, 45.330020474805], [-121.36213379138, 45.3319220800086], [-121.361143368048, 45.3398586270202], [-121.342678727349, 45.3461196100321], [-121.276642039704, 45.3457061921477], [-121.26706830868, 45.3455770962064], [-121.256136805757, 45.3453751213015], [-121.25638848182, 45.344575441244], [-121.25678068547, 45.3387001965859], [-121.257006309181, 45.3332656356896], [-121.256403655379, 45.3276988844317], [-121.255234324355, 45.3232493095554], [-121.256007439013, 45.3192423435567], [-121.253577960931, 45.3147834026554], [-121.252363197936, 45.3113396630202], [-121.250465324037, 45.3083040636283], [-121.246934744301, 45.304901109924], [-121.25056006275, 45.303752969457], [-121.257146872364, 45.3035032337352], [-121.259780787224, 45.3011652735346], [-121.25877525333, 45.2999800028604], [-121.254694858973, 45.2978854201827], [-121.256202469442, 45.2970054366344], [-121.257661964683, 45.2935417789883], [-121.253679224911, 45.2907300677686], [-121.254731906401, 45.2882838844734], [-121.255925620985, 45.2855837062149]]]}, "properties": {"zone_name": "NF 27", "level": 1, "fire_name": "Grasshopper", "county": "Wasco", "addresses": 5, "unmatched_addresses": 1, "unmatched_fraction_pct": 29.5, "geometry_source": "cached", "geometry_cache_age_days": 0, "overlapping_zips": [{"zip": "97021", "fraction_pct": 69.0}, {"zip": "97063", "fraction_pct": 1.4}]}}]}