{"type": "FeatureCollection", "generated_at": "2026-09-18T23:01:44Z", "date": "2026-09-18", "features": [{"type": "Feature", "geometry": {"type": "Polygon", "coordinates": [[[-121.482103841454, 45.504320409974], [-121.481622098401, 45.4688661256841], [-121.490312594241, 45.4706436940868], [-121.497916778101, 45.4700088546641], [-121.508236741911, 45.4703897591758], [-121.521272485671, 45.4700088546641], [-121.538221417167, 45.4701189017076], [-121.548563598079, 45.469783246951], [-121.555614102602, 45.4690528172258], [-121.563394236658, 45.4682118159248], [-121.562857651038, 45.4787475142072], [-121.561426756051, 45.4852686261038], [-121.563156278871, 45.4927616565486], [-121.563753534537, 45.5051112396184], [-121.531203100727, 45.5042740653415], [-121.482103841454, 45.504320409974]]]}, "properties": {"zone_name": "Gibson Prairie", "level": 1, "fire_name": "Grasshopper", "county": "Hood River", "addresses": 7, "unmatched_addresses": 3, "unmatched_fraction_pct": 44.6, "geometry_source": "cached", "geometry_cache_age_days": 0, "overlapping_zips": [{"zip": "97041", "fraction_pct": 55.4}]}}, {"type": "Feature", "geometry": {"type": "Polygon", "coordinates": [[[-121.695631424191, 45.3731882833905], [-121.665440759653, 45.332977760854], [-121.662271237927, 45.319109981336], [-121.657651242425, 45.3065654457352], [-121.652902913714, 45.3043089396815], [-121.648539584629, 45.298441603577], [-121.64366292271, 45.2944695237395], [-121.643534589501, 45.2904068815706], [-121.640069715125, 45.2858021720227], [-121.628776392786, 45.2864342090032], [-121.622873065199, 45.2855312968751], [-121.617611403656, 45.2839060188289], [-121.610938076819, 45.2683732358445], [-121.610553077194, 45.2581662444594], [-121.696407839644, 45.2578952177535], [-121.69589450681, 45.2635860947872], [-121.692429510183, 45.2684635353871], [-121.691787844141, 45.2730696222637], [-121.690889511683, 45.2753273714568], [-121.689092846765, 45.2760498322282], [-121.688966873242, 45.276763187815], [-121.688118645227, 45.277925528111], [-121.687493635112, 45.278176841801], [-121.687225773634, 45.2789307761933], [-121.687538278691, 45.2793391531396], [-121.686823981416, 45.2801873112518], [-121.685484674026, 45.2811296942844], [-121.68490430749, 45.2823861806458], [-121.684993594649, 45.2832342932089], [-121.685082881809, 45.2838311055607], [-121.684770376751, 45.2841452148028], [-121.684952617319, 45.2853857129418], [-121.684149032884, 45.2866421050445], [-121.684015102146, 45.2870818357065], [-121.682809725494, 45.2875215629596], [-121.682006141059, 45.2880241042178], [-121.681202556625, 45.2891233976975], [-121.680532902929, 45.2898771866279], [-121.679907892814, 45.2900656322949], [-121.680265041451, 45.2915731750935], [-121.679863249234, 45.2921070868924], [-121.680086467133, 45.2931748954115], [-121.680309685031, 45.2937401976643], [-121.680800764408, 45.2939914413016], [-121.680845407987, 45.2944311149882], [-121.680890051567, 45.2948079754349], [-121.680041823553, 45.2954988797494], [-121.679952536394, 45.2958443287505], [-121.679327526278, 45.2959385417487], [-121.679327552724, 45.2965938660534], [-121.679193621985, 45.2972533450394], [-121.679372196304, 45.2976929934358], [-121.680041849999, 45.2980698322054], [-121.68133651381, 45.2994515529342], [-121.682274028984, 45.2999853905619], [-121.682899039099, 45.3005192231633], [-121.683657979954, 45.3008960431498], [-121.685052310684, 45.3026359252881], [-121.685364815741, 45.3030441315867], [-121.686168400176, 45.3038919352769], [-121.687909499784, 45.3047711257123], [-121.687418420407, 45.3060584871069], [-121.687596994726, 45.3066864576656], [-121.687552351146, 45.3077539916505], [-121.687954143363, 45.3081307635509], [-121.687954143363, 45.3085703276027], [-121.688757727798, 45.3094494454802], [-121.688757727798, 45.3107367006288], [-121.689021390495, 45.3112112534191], [-121.689289251973, 45.3132205520497], [-121.690048192828, 45.3145077215496], [-121.689914262089, 45.3163599385493], [-121.691769547532, 45.3194779675227], [-121.693644577879, 45.3203255254193], [-121.693689221459, 45.3213928025136], [-121.695296390328, 45.3221775522564], [-121.697037489935, 45.322554228272], [-121.698064292268, 45.3233389619282], [-121.698912520283, 45.3242492393513], [-121.699582173978, 45.3255989341256], [-121.700207184094, 45.3266661118791], [-121.700966124948, 45.3272310801978], [-121.700966124948, 45.3278588161655], [-121.70139502607, 45.3283582763594], [-121.702287897664, 45.3287662974099], [-121.703314699997, 45.3312771314867], [-121.703314699997, 45.3317792849454], [-121.702377184824, 45.332438354603], [-121.702153966925, 45.3336623207628], [-121.702689689881, 45.3342586023857], [-121.70295755136, 45.3347921122006], [-121.702645046302, 45.3353256169893], [-121.702778977041, 45.335827734552], [-121.703314699997, 45.3363612295841], [-121.703225412838, 45.3373968232397], [-121.703627205055, 45.3388717269619], [-121.70438614591, 45.3389344879703], [-121.704564720229, 45.3396876146446], [-121.704832581707, 45.3401269339117], [-121.704564720229, 45.3409741828721], [-121.704409926049, 45.3419120168562], [-121.704365282469, 45.3433240468927], [-121.704320638889, 45.3444850229847], [-121.703695628774, 45.3452066988253], [-121.703249192977, 45.3459597420676], [-121.703293836556, 45.3467755276096], [-121.703338480136, 45.3475913013946], [-121.703517054455, 45.3485639393885], [-121.703606341614, 45.3490659395559], [-121.702624182861, 45.349818931459], [-121.702222390644, 45.3513562588238], [-121.701909885586, 45.3526425618785], [-121.701954529166, 45.3532700161743], [-121.701552736949, 45.3541798125472], [-121.701379021905, 45.3549826450058], [-121.701602239804, 45.3555473308353], [-121.701379021905, 45.3560492690643], [-121.701289734746, 45.357617797334], [-121.701468309065, 45.3591862821259], [-121.701512952644, 45.3601900895753], [-121.701914744862, 45.3614134558259], [-121.701870101282, 45.36213491583], [-121.70218260634, 45.3624485912235], [-121.70213796276, 45.3632641391066], [-121.700932586108, 45.3644560725571], [-121.700977229688, 45.3654284207198], [-121.70075401179, 45.3659302712969], [-121.70075401179, 45.3665575782575], [-121.700530797041, 45.3672649703273], [-121.699682569027, 45.3678922624863], [-121.699146846071, 45.3685195476893], [-121.699459351129, 45.3689272793407], [-121.699727212607, 45.3693977352864], [-121.700218291983, 45.3698054606073], [-121.700129004824, 45.3701504566601], [-121.700039717665, 45.3704954506091], [-121.699548638288, 45.3704327245931], [-121.697450390043, 45.3720322162693], [-121.697450390043, 45.3725026463891], [-121.697361102883, 45.372784902583], [-121.697271815724, 45.3731926034867], [-121.695631424191, 45.3731882833905]]]}, "properties": {"zone_name": "White River", "level": 1, "fire_name": "Grasshopper", "county": "Hood River", "addresses": 1, "unmatched_addresses": 1, "unmatched_fraction_pct": 58.0, "geometry_source": "cached", "geometry_cache_age_days": 0, "overlapping_zips": [{"zip": "97041", "fraction_pct": 41.7}, {"zip": "97028", "fraction_pct": 0.3}]}}, {"type": "Feature", "geometry": {"type": "Polygon", "coordinates": [[[-121.579267653886, 45.4624953569377], [-121.581504749198, 45.4598502243048], [-121.581788634604, 45.4592528618888], [-121.581873800226, 45.4570027399744], [-121.582498348121, 45.4548321833126], [-121.582044124558, 45.4523487773195], [-121.582725449534, 45.4502377876656], [-121.582469952668, 45.4486246196728], [-121.581649466156, 45.4465402015887], [-121.576170477811, 45.4415608130894], [-121.576138657241, 45.4372860526701], [-121.573962049635, 45.4284897645563], [-121.574381837044, 45.4252764269452], [-121.573189518337, 45.4240012649418], [-121.569555785134, 45.4217298112756], [-121.570180333029, 45.4185217254243], [-121.576911459088, 45.4134286526258], [-121.585013742717, 45.4123554932002], [-121.597472914714, 45.407901663666], [-121.606186691448, 45.4070967172432], [-121.616658510856, 45.4035548167112], [-121.620945867756, 45.4038161119679], [-121.624826216684, 45.4020171528086], [-121.647231016379, 45.3956832868451], [-121.659046450658, 45.38625594899], [-121.695671530513, 45.3731909422353], [-121.696952287014, 45.3732856488601], [-121.696851174659, 45.3736881502458], [-121.698131931161, 45.3738065324616], [-121.698233043516, 45.3742800588445], [-121.698637492938, 45.3746352010299], [-121.69880601353, 45.3752507755345], [-121.69924416707, 45.3757716410354], [-121.699648616492, 45.3760320719867], [-121.699951953558, 45.3762925017387], [-121.699951953558, 45.37667130651], [-121.700322698861, 45.377641982153], [-121.700390107098, 45.3785889667228], [-121.700794556519, 45.3788730590006], [-121.701165301823, 45.379275520618], [-121.701805680073, 45.3799620661776], [-121.702347081325, 45.3802079264437], [-121.702800593791, 45.3807870992765], [-121.703790075536, 45.3815979312757], [-121.704284816408, 45.3819743850371], [-121.70457341525, 45.3826114549224], [-121.705274298153, 45.38313268858], [-121.705645353807, 45.3836249603998], [-121.705892724243, 45.3834801750153], [-121.707129576424, 45.3834222607576], [-121.707706774108, 45.3835380892136], [-121.708119058168, 45.3835380892136], [-121.708574029166, 45.3836451724226], [-121.709316140475, 45.3842822234811], [-121.710181937002, 45.3846586593684], [-121.71071790628, 45.3849482237298], [-121.711295103964, 45.385237786608], [-121.711789844837, 45.3855273480035], [-121.712325814115, 45.3855273480035], [-121.712820554987, 45.3859037755996], [-121.713480209484, 45.3861933335833], [-121.713974950356, 45.3865697567447], [-121.714799518476, 45.3868593113174], [-121.715747771815, 45.3870040880471], [-121.716778481966, 45.3871199091643], [-121.717520593274, 45.3874094609184], [-121.718345161395, 45.3878148308827], [-121.719087272703, 45.3885966076045], [-121.719994297635, 45.3888571974421], [-121.720653952132, 45.389175694501], [-121.720860094162, 45.3895231437912], [-121.721560977064, 45.3901311749101], [-121.722138174749, 45.3907391994877], [-121.722715372433, 45.3911734987529], [-121.723292570117, 45.3918973234458], [-121.723333798524, 45.3924474240122], [-121.723579265896, 45.3930646058544], [-121.692114151175, 45.4515970714218], [-121.689488556812, 45.4521446561373], [-121.687430658527, 45.4530904717585], [-121.682037545781, 45.455728715711], [-121.675438078868, 45.4581179622171], [-121.673947876662, 45.4586157091643], [-121.672315750436, 45.4587650323917], [-121.669193422004, 45.4586654836174], [-121.666567827641, 45.4580681872814], [-121.663516461219, 45.4573713335585], [-121.65919404244, 45.4569429212554], [-121.658148505533, 45.4571482691583], [-121.657279591868, 45.4578470880651], [-121.656108590533, 45.4583751155527], [-121.655481268389, 45.4595191581458], [-121.654059338196, 45.4604578424241], [-121.653473837528, 45.4605751768602], [-121.652344657669, 45.4599005005185], [-121.651633692573, 45.4594898240102], [-121.648957118092, 45.4588151346817], [-121.647326080518, 45.4589618069614], [-121.646280543612, 45.4604578424241], [-121.643896719465, 45.4612498451281], [-121.640613249549, 45.4616719819587], [-121.639107676403, 45.4619066455332], [-121.637936675068, 45.4625519653262], [-121.637142067019, 45.4624639676074], [-121.636640209304, 45.4615546498056], [-121.630366987865, 45.4593546267174], [-121.628777771768, 45.4598533061412], [-121.629028700625, 45.4607919848561], [-121.627899520766, 45.4621706408867], [-121.626686697955, 45.4626692954042], [-121.626226661716, 45.4636959231702], [-121.624888374476, 45.4648398578014], [-121.622128157043, 45.4653384887098], [-121.620622583897, 45.4657784534956], [-121.618681050719, 45.466356064175], [-121.579267653886, 45.4624953569377]]]}, "properties": {"zone_name": "Cooper Spur South", "level": 1, "fire_name": "Grasshopper", "county": "Hood River", "addresses": 63, "unmatched_addresses": 0, "unmatched_fraction_pct": 0, "geometry_source": "cached", "geometry_cache_age_days": 0, "overlapping_zips": [{"zip": "97041", "fraction_pct": 100.0}]}}, {"type": "Feature", "geometry": {"type": "Polygon", "coordinates": [[[-121.579242123474, 45.462486142055], [-121.618618527551, 45.4664184331299], [-121.622006874687, 45.4654108559806], [-121.624957143103, 45.464879656403], [-121.626231161626, 45.4637199589176], [-121.626691976837, 45.4627693694163], [-121.627938888583, 45.4621419715656], [-121.628996052889, 45.46086814233], [-121.62880630545, 45.4598604659793], [-121.630351391744, 45.4594421799408], [-121.636558843697, 45.4615716038243], [-121.637128671446, 45.4624881123468], [-121.637912813239, 45.4625626856262], [-121.639069090119, 45.4619474531215], [-121.643949624282, 45.4612757585387], [-121.646275468582, 45.4604833943152], [-121.647336449517, 45.4590180169544], [-121.648957895258, 45.4588408941195], [-121.651589421951, 45.4595214156579], [-121.653478547341, 45.4605815362655], [-121.654023459434, 45.4605069603661], [-121.655472128169, 45.459556108996], [-121.656136655112, 45.4584001504402], [-121.657294835425, 45.457867878539], [-121.658118848834, 45.457178014501], [-121.659182091942, 45.4569822407368], [-121.663463078491, 45.4573728946584], [-121.669150042808, 45.4586785760801], [-121.672273319439, 45.4588090880721], [-121.673934636796, 45.4586319645809], [-121.682018408606, 45.4557794424365], [-121.689503052742, 45.4522076532639], [-121.692068161587, 45.4515923071554], [-121.689193944842, 45.4573235267616], [-121.690428910739, 45.4635959681882], [-121.690314715199, 45.4795975315237], [-121.690308893958, 45.4840398283973], [-121.689946889407, 45.4848737504996], [-121.687878291971, 45.4852725784454], [-121.687619717292, 45.4866140699049], [-121.681569069792, 45.4908921265631], [-121.680483056139, 45.4913271649707], [-121.679138467806, 45.4914721770266], [-121.677638734665, 45.4925597555442], [-121.67794902428, 45.4948073512616], [-121.676448868714, 45.4961856096958], [-121.676759158329, 45.4975993393441], [-121.675673144676, 45.4986505512023], [-121.673397687496, 45.4985780544628], [-121.673242542688, 45.4994480091758], [-121.672156529035, 45.5007529160438], [-121.671380804996, 45.5019128078708], [-121.670294791343, 45.5020215465046], [-121.668588198458, 45.5015503442415], [-121.667398754933, 45.5014053581368], [-121.665175012689, 45.5020215465046], [-121.663054700317, 45.5028189567342], [-121.660675813266, 45.5036888459217], [-121.6579866366, 45.5039063161187], [-121.656700047798, 45.504196298834], [-121.654476305555, 45.5047037234124], [-121.628567122672, 45.5046312344669], [-121.563776490238, 45.5044103545765], [-121.563259340879, 45.4940071823391], [-121.561386285324, 45.4847723577825], [-121.562679153379, 45.4782456746311], [-121.563351447545, 45.4682728852552], [-121.564954610558, 45.4669309570816], [-121.567798932032, 45.4651537597922], [-121.576643378077, 45.4638247922832], [-121.579242123474, 45.462486142055]]]}, "properties": {"zone_name": "Cooper Spur North", "level": 1, "fire_name": "Grasshopper", "county": "Hood River", "addresses": 291, "unmatched_addresses": 133, "unmatched_fraction_pct": 45.8, "geometry_source": "cached", "geometry_cache_age_days": 0, "overlapping_zips": [{"zip": "97041", "fraction_pct": 54.2}]}}, {"type": "Feature", "geometry": {"type": "Polygon", "coordinates": [[[-121.255925620985, 45.2855837062149], [-121.274911762028, 45.2919690714837], [-121.300681274979, 45.2979396917481], [-121.310429363627, 45.299539657332], [-121.332135637274, 45.300591050706], [-121.340846506664, 45.3015497687707], [-121.344349737932, 45.3026722861629], [-121.355754701947, 45.3022616116466], [-121.36521342637, 45.301987826983], [-121.369456228683, 45.3003724705546], [-121.37359221884, 45.3064970232305], [-121.372366723434, 45.3112815750389], [-121.361793866248, 45.3219114846968], [-121.360818887007, 45.3257152160272], [-121.363148146182, 45.3275113146842], [-121.366040935804, 45.330020474805], [-121.36213379138, 45.3319220800086], [-121.361143368048, 45.3398586270202], [-121.342678727349, 45.3461196100321], [-121.276642039704, 45.3457061921477], [-121.26706830868, 45.3455770962064], [-121.256136805757, 45.3453751213015], [-121.25638848182, 45.344575441244], [-121.25678068547, 45.3387001965859], [-121.257006309181, 45.3332656356896], [-121.256403655379, 45.3276988844317], [-121.255234324355, 45.3232493095554], [-121.256007439013, 45.3192423435567], [-121.253577960931, 45.3147834026554], [-121.252363197936, 45.3113396630202], [-121.250465324037, 45.3083040636283], [-121.246934744301, 45.304901109924], [-121.25056006275, 45.303752969457], [-121.257146872364, 45.3035032337352], [-121.259780787224, 45.3011652735346], [-121.25877525333, 45.2999800028604], [-121.254694858973, 45.2978854201827], [-121.256202469442, 45.2970054366344], [-121.257661964683, 45.2935417789883], [-121.253679224911, 45.2907300677686], [-121.254731906401, 45.2882838844734], [-121.255925620985, 45.2855837062149]]]}, "properties": {"zone_name": "NF 27", "level": 2, "fire_name": "Grasshopper", "county": "Wasco", "addresses": 5, "unmatched_addresses": 1, "unmatched_fraction_pct": 29.5, "geometry_source": "cached", "geometry_cache_age_days": 0, "overlapping_zips": [{"zip": "97021", "fraction_pct": 69.0}, {"zip": "97063", "fraction_pct": 1.4}]}}, {"type": "Feature", "geometry": {"type": "Polygon", "coordinates": [[[-121.570790155831, 45.2582394252857], [-121.610754498938, 45.2571624790621], [-121.611173076046, 45.2629935171116], [-121.611173076046, 45.2684554965836], [-121.613801625754, 45.2769117182612], [-121.617181189663, 45.2839576071739], [-121.622938965213, 45.2857189426863], [-121.628321233662, 45.2864234615792], [-121.633766872969, 45.2860202839519], [-121.640291852485, 45.2857959514005], [-121.643421078328, 45.2901109864281], [-121.643671416395, 45.2944256932016], [-121.649324431663, 45.299350592184], [-121.653390375997, 45.3044745209717], [-121.657286905984, 45.30709588686], [-121.662174498887, 45.3197815366045], [-121.665070286782, 45.3324496291922], [-121.677615349685, 45.3470868328109], [-121.695423275897, 45.3732294455049], [-121.67697935232, 45.379707370367], [-121.658853427425, 45.3861845531407], [-121.647120050036, 45.395712477569], [-121.624789660746, 45.401970719515], [-121.620868627455, 45.4038060693467], [-121.616424789726, 45.4035766538786], [-121.611318331202, 45.4053725641374], [-121.606220987923, 45.4069784017996], [-121.596756642693, 45.4079198835945], [-121.590010972812, 45.4099301796361], [-121.584997067394, 45.4122557867138], [-121.576757456112, 45.4134099261343], [-121.570150080197, 45.4185132233692], [-121.570078697722, 45.4148053318414], [-121.570863904944, 45.4126005241594], [-121.570007315247, 45.4092430380397], [-121.56915072555, 45.4062862805212], [-121.569530788064, 45.4019321867418], [-121.57081567261, 45.3984738210098], [-121.571172584984, 45.3969199935769], [-121.569245258165, 45.3930603018537], [-121.569011518471, 45.3900300009074], [-121.568083546299, 45.3837633702882], [-121.567512486501, 45.3802036147284], [-121.566727279278, 45.3760419261833], [-121.566192953, 45.3757225186955], [-121.566574205374, 45.3745051759613], [-121.566331590227, 45.3736286729665], [-121.566470227454, 45.3715590981023], [-121.567386589708, 45.3678718922413], [-121.570790155831, 45.2582394252857]]]}, "properties": {"zone_name": "Elk Mountain", "level": 2, "fire_name": "Grasshopper", "county": "Hood River", "addresses": 5, "unmatched_addresses": 1, "unmatched_fraction_pct": 23.9, "geometry_source": "cached", "geometry_cache_age_days": 0, "overlapping_zips": [{"zip": "97041", "fraction_pct": 76.1}]}}, {"type": "Feature", "geometry": {"type": "Polygon", "coordinates": [[[-121.563426027757, 45.467853803291], [-121.549256379365, 45.4697371657695], [-121.530774271944, 45.4697371657695], [-121.515460525796, 45.4693668433743], [-121.499090659224, 45.4697371657695], [-121.489585575407, 45.4701074857316], [-121.481768805539, 45.4689364348817], [-121.482200993275, 45.4540260260142], [-121.482417325299, 45.4367738083957], [-121.482215504741, 45.4236019220097], [-121.482215504741, 45.4115604124366], [-121.481811863626, 45.4050427599266], [-121.481847296106, 45.400002938882], [-121.492699530721, 45.3983921991669], [-121.499669665149, 45.3948608014207], [-121.508404390571, 45.3954184052105], [-121.515727443198, 45.4050826633638], [-121.516256820496, 45.4094186521676], [-121.518639018339, 45.4111529544958], [-121.519256625186, 45.4153646098708], [-121.526844366462, 45.4169748656865], [-121.526314989164, 45.4139401145277], [-121.531897971073, 45.410499643507], [-121.533397873418, 45.4081459073589], [-121.540795515106, 45.4071548298634], [-121.548471485931, 45.4091989053551], [-121.553235881616, 45.4073406579647], [-121.55430084568, 45.404541636702], [-121.557022841777, 45.4034971863611], [-121.558732002116, 45.4022971557481], [-121.557909073064, 45.4013860043696], [-121.553473545179, 45.4004457204128], [-121.552616449492, 45.3998439096019], [-121.552538531702, 45.3989502999059], [-121.5536934919, 45.3984430299054], [-121.555251847694, 45.3972028839413], [-121.556108943381, 45.3964368978371], [-121.554265253461, 45.3935021322889], [-121.554524979427, 45.392590183173], [-121.555511938097, 45.392590183173], [-121.560005197304, 45.3956907501273], [-121.56125695961, 45.3955420904812], [-121.561854329331, 45.3944477892785], [-121.561568630769, 45.3929704490416], [-121.561075151434, 45.3924779937138], [-121.561685780728, 45.3883950266604], [-121.5609385177, 45.3869205671593], [-121.562361875849, 45.3855210445986], [-121.562077202648, 45.383535617889], [-121.561436691481, 45.3827858330747], [-121.562112786602, 45.3811112777523], [-121.563014959637, 45.3803569740336], [-121.564260398017, 45.3770826565047], [-121.565826091981, 45.3760828271051], [-121.56604740128, 45.3757555965957], [-121.566773058905, 45.3760468765907], [-121.56705363353, 45.3778840639637], [-121.567502924971, 45.380777524303], [-121.568047227115, 45.3838404040887], [-121.568611857736, 45.3869052725305], [-121.569007662621, 45.3907134652813], [-121.569229357146, 45.3930032102116], [-121.569973396064, 45.3945352477979], [-121.571158466049, 45.3968712698819], [-121.570658158448, 45.3988568389224], [-121.569912238853, 45.400842187996], [-121.569472367104, 45.4021171343466], [-121.569175033766, 45.4064005466785], [-121.569752078663, 45.408354413082], [-121.57019165127, 45.4099413725184], [-121.570858024959, 45.4126199403679], [-121.570100238017, 45.4147074523733], [-121.570099464162, 45.4163189049144], [-121.570132124841, 45.4176501125545], [-121.570141953066, 45.4184848016516], [-121.569465258424, 45.4216696777039], [-121.573069948514, 45.4239272363913], [-121.57451182455, 45.4256398069006], [-121.574068170385, 45.4285977608654], [-121.576166934976, 45.4372917544759], [-121.576187170642, 45.4416565759942], [-121.581677390933, 45.4461700043931], [-121.582877218987, 45.4497067879588], [-121.582378108052, 45.4523911600808], [-121.582599935134, 45.4549976020543], [-121.581718616222, 45.459338946434], [-121.579112148003, 45.4625674066894], [-121.575452001142, 45.4640454352333], [-121.568228962204, 45.465118020642], [-121.565208730066, 45.4662991447765], [-121.563426027757, 45.467853803291]]]}, "properties": {"zone_name": "Mill Creek Buttes", "level": 2, "fire_name": "Grasshopper", "county": "Hood River", "addresses": 6, "unmatched_addresses": 4, "unmatched_fraction_pct": 62.9, "geometry_source": "cached", "geometry_cache_age_days": 0, "overlapping_zips": [{"zip": "97041", "fraction_pct": 37.1}]}}]}